LANDSAT 8               
1 39084U 13008A   24279.48872441  .00002838  00000+0  63981-3 0  9998
2 39084  98.2184 347.7108 0001310  94.8087 265.3261 14.57111748619470
LANDSAT 9               
1 49260U 21088A   24279.45442857  .00003163  00000+0  71162-3 0  9995
2 49260  98.2212 347.6747 0001270  91.6130 268.5214 14.57122291160756
